{
"type": "FeatureCollection",
"name": "data",
"crs": { "type": "name", "properties": { "name": "urn:ogc:def:crs:OGC:1.3:CRS84" } },
"features": [
{ "type": "Feature", "properties": { }, "geometry": { "type": "MultiPolygon", "coordinates": [ [ [ [ 5.580728782879111, 50.884488987628707 ], [ 5.580686295128105, 50.884620417488023 ], [ 5.580698122245829, 50.884620006999967 ], [ 5.580857147747419, 50.884656395309619 ], [ 5.580910007969377, 50.884668490755892 ], [ 5.580988173943203, 50.884686376594253 ], [ 5.581136750405656, 50.884650785799877 ], [ 5.581133923352524, 50.88464966464327 ], [ 5.581100114205382, 50.884636256555694 ], [ 5.580978593657592, 50.884588063589185 ], [ 5.58084864981737, 50.884536527459801 ], [ 5.580801447734906, 50.884517806902899 ], [ 5.580728782879111, 50.884488987628707 ] ] ], [ [ [ 5.581300502020807, 50.884498846519257 ], [ 5.581332432958826, 50.884463817517755 ], [ 5.581489634970118, 50.884291303602055 ], [ 5.581530702367616, 50.884254636645132 ], [ 5.581590216735071, 50.884201499216296 ], [ 5.581658037436012, 50.884179752672047 ], [ 5.581678553752168, 50.884144688526774 ], [ 5.581866059106701, 50.883723021379936 ], [ 5.581873106630402, 50.883707172568378 ], [ 5.581736902218225, 50.883702158812397 ], [ 5.581970824803937, 50.883480245879383 ], [ 5.581984592411597, 50.883447020491339 ], [ 5.58197211446942, 50.883457127263945 ], [ 5.581963763224086, 50.883463891528201 ], [ 5.581904977609503, 50.883506313172994 ], [ 5.581904699764992, 50.883518957301966 ], [ 5.581788623096372, 50.883617123571824 ], [ 5.581492127655192, 50.883771665681977 ], [ 5.581429038837042, 50.883811586100663 ], [ 5.581429020213935, 50.883811597886762 ], [ 5.581411903767731, 50.883822430448788 ], [ 5.581223960966248, 50.883941532275877 ], [ 5.581172923086466, 50.883978346372238 ], [ 5.581103409662503, 50.884028343317446 ], [ 5.580946325145032, 50.884141363767711 ], [ 5.580812169758985, 50.884271587833787 ], [ 5.580793446676266, 50.884288957931176 ], [ 5.580790480525152, 50.884298133399881 ], [ 5.580948887601169, 50.884354575430869 ], [ 5.580996616819221, 50.884371581760533 ], [ 5.581042440585142, 50.884387909130865 ], [ 5.581141424676693, 50.884430460946732 ], [ 5.581256455951618, 50.884479911648683 ], [ 5.581296686209982, 50.884497206149774 ], [ 5.581300502020807, 50.884498846519257 ] ] ] ] } },
{ "type": "Feature", "properties": { }, "geometry": { "type": "MultiPolygon", "coordinates": [ [ [ [ 4.903515568997614, 50.998513331388516 ], [ 4.903528949343276, 50.998518886393953 ], [ 4.903547426454225, 50.998526389571893 ], [ 4.90357220655968, 50.998536452258882 ], [ 4.903592160475327, 50.998540910990364 ], [ 4.90372678266497, 50.998432747537095 ], [ 4.904314562416206, 50.997960477616019 ], [ 4.904575422777912, 50.997750877266661 ], [ 4.904499819837091, 50.997689415657327 ], [ 4.904471063860699, 50.997662323474323 ], [ 4.904418284331118, 50.997622551194858 ], [ 4.903596736582296, 50.998433241369902 ], [ 4.903515568997614, 50.998513331388516 ] ] ], [ [ [ 4.902630435529751, 50.999517990503534 ], [ 4.902665782061852, 50.999530254598817 ], [ 4.903605499312506, 50.998764442386232 ], [ 4.903484701053003, 50.998723277024524 ], [ 4.902989829217045, 50.99918365467628 ], [ 4.902630435529751, 50.999517990503534 ] ] ] ] } },
{ "type": "Feature", "properties": { }, "geometry": { "type": "Polygon", "coordinates": [ [ [ 5.024289508305964, 50.878313284646786 ], [ 5.024714666233333, 50.878364841132147 ], [ 5.024908132273822, 50.877770299618945 ], [ 5.024384516108454, 50.877656465609981 ], [ 5.024276743790964, 50.878196828995165 ], [ 5.024340215526699, 50.878215466885678 ], [ 5.024289508305964, 50.878313284646786 ] ] ] } },
{ "type": "Feature", "properties": { }, "geometry": { "type": "Polygon", "coordinates": [ [ [ 5.025248161959733, 50.878429532755156 ], [ 5.025444694352005, 50.877869725745761 ], [ 5.025181666058502, 50.877821415942215 ], [ 5.024993821724673, 50.878398691820522 ], [ 5.025248161959733, 50.878429532755156 ] ] ] } },
{ "type": "Feature", "properties": { }, "geometry": { "type": "Polygon", "coordinates": [ [ [ 4.087328830728188, 50.991263368934035 ], [ 4.087345540747762, 50.991292723627865 ], [ 4.087352869374479, 50.991305597902532 ], [ 4.087386044226228, 50.991412429685354 ], [ 4.087371857475985, 50.991571229158453 ], [ 4.087473551641691, 50.991717171345087 ], [ 4.087475352119685, 50.991721012963751 ], [ 4.087563716526976, 50.991766453775632 ], [ 4.087992387414208, 50.991986893980901 ], [ 4.088066800959859, 50.99202515995033 ], [ 4.088156196777658, 50.991663045977155 ], [ 4.088137275373599, 50.991639911017302 ], [ 4.088109838489721, 50.991606363546069 ], [ 4.087965403744573, 50.991529398761855 ], [ 4.087910611757231, 50.991443116771826 ], [ 4.087911109428989, 50.991359870597307 ], [ 4.087934714368689, 50.991308448331147 ], [ 4.088033401854664, 50.991249885584814 ], [ 4.087328830728188, 50.991263368934035 ] ] ] } },
{ "type": "Feature", "properties": { }, "geometry": { "type": "Polygon", "coordinates": [ [ [ 3.427160329663525, 51.058243421944169 ], [ 3.427392862492401, 51.058356571765906 ], [ 3.427509411919785, 51.058413003194445 ], [ 3.427642298593894, 51.058474084289877 ], [ 3.427660563470462, 51.058478017321697 ], [ 3.427747065442955, 51.058496644008478 ], [ 3.428060344210571, 51.057894869737098 ], [ 3.42800241339119, 51.057888751328917 ], [ 3.427963496096283, 51.057866892531528 ], [ 3.427808491953482, 51.057846117821519 ], [ 3.427160329663525, 51.058243421944169 ] ] ] } },
{ "type": "Feature", "properties": { }, "geometry": { "type": "Polygon", "coordinates": [ [ [ 4.831638763938638, 50.932910148069709 ], [ 4.831842564634841, 50.932968909330903 ], [ 4.831920534664014, 50.932995027533643 ], [ 4.83213216229965, 50.933065917016343 ], [ 4.832218219979877, 50.933080466981821 ], [ 4.832282916569998, 50.933099439141145 ], [ 4.832397415161708, 50.933133015855439 ], [ 4.832437489577191, 50.933051586876452 ], [ 4.832555955179599, 50.9328108681066 ], [ 4.832015490296263, 50.932759173807881 ], [ 4.831924386157812, 50.932796706676399 ], [ 4.831792855448682, 50.932850894157795 ], [ 4.831638763938638, 50.932910148069709 ] ] ] } },
{ "type": "Feature", "properties": { }, "geometry": { "type": "Polygon", "coordinates": [ [ [ 4.958300911524971, 50.94654458401147 ], [ 4.960159059651322, 50.946698863653985 ], [ 4.960209709741198, 50.946553668806267 ], [ 4.960250979591714, 50.946435362933464 ], [ 4.960289000358855, 50.946326370493907 ], [ 4.959623568004258, 50.946259129632729 ], [ 4.958956665097198, 50.946190104609379 ], [ 4.958906610973938, 50.946343927444602 ], [ 4.958867626722323, 50.946463730433599 ], [ 4.958344886925686, 50.946415111705541 ], [ 4.958300911524971, 50.94654458401147 ] ] ] } },
{ "type": "Feature", "properties": { }, "geometry": { "type": "Polygon", "coordinates": [ [ [ 4.565112705780678, 51.031829047726255 ], [ 4.565104566568347, 51.031946189013794 ], [ 4.565107018228535, 51.031971167055758 ], [ 4.565144847839534, 51.03235732472826 ], [ 4.565161660556422, 51.032374198888242 ], [ 4.565196287342499, 51.032408951984493 ], [ 4.565590975913953, 51.032574810519499 ], [ 4.565892649916848, 51.032701580169771 ], [ 4.56602559277326, 51.032616636261437 ], [ 4.566188039128262, 51.032495300002438 ], [ 4.566360076616391, 51.032348844146163 ], [ 4.566458332650627, 51.032266542283395 ], [ 4.566606267727945, 51.032159243620178 ], [ 4.566718995040723, 51.032056919349827 ], [ 4.566746485220086, 51.032039992277262 ], [ 4.566786568752853, 51.031975704871925 ], [ 4.566854618356098, 51.031880158596223 ], [ 4.56692115382408, 51.031802045903817 ], [ 4.567025570983529, 51.031633946465391 ], [ 4.567045534211872, 51.031590137011662 ], [ 4.567088985682092, 51.031396820458596 ], [ 4.566716972355543, 51.031294377326077 ], [ 4.56638780509068, 51.031203731550377 ], [ 4.566213135174884, 51.031482215380876 ], [ 4.565910782015977, 51.031908482595512 ], [ 4.565112705780678, 51.031829047726255 ] ] ] } },
{ "type": "Feature", "properties": { }, "geometry": { "type": "Polygon", "coordinates": [ [ [ 3.650074535425519, 50.944328075943638 ], [ 3.651403021632551, 50.943925516736847 ], [ 3.651357720091017, 50.943844482054153 ], [ 3.651268001553454, 50.943683994055398 ], [ 3.651241694882721, 50.943636936610254 ], [ 3.651195753004243, 50.943554755406254 ], [ 3.650199425812508, 50.943841040364667 ], [ 3.650156863695718, 50.943972579137167 ], [ 3.65012138694349, 50.944091636055781 ], [ 3.650100060333339, 50.94416320146599 ], [ 3.650086083548602, 50.944279919668908 ], [ 3.650083168870083, 50.944304259676166 ], [ 3.650074535425519, 50.944328075943638 ] ] ] } },
{ "type": "Feature", "properties": { }, "geometry": { "type": "MultiPolygon", "coordinates": [ [ [ [ 3.33214446551248, 51.278769881065735 ], [ 3.332291976032737, 51.27904997067948 ], [ 3.332326142639272, 51.279056969098335 ], [ 3.332332220426102, 51.279058213903959 ], [ 3.333024523699572, 51.279200017457363 ], [ 3.33303494958417, 51.279180470257465 ], [ 3.33306059413839, 51.27918584782384 ], [ 3.33306093408844, 51.278874277381242 ], [ 3.333060941614075, 51.278867392515835 ], [ 3.33214446551248, 51.278769881065735 ] ] ], [ [ [ 3.333971540262919, 51.279376902640436 ], [ 3.333957387955361, 51.279190144270011 ], [ 3.333755418069517, 51.276685710195515 ], [ 3.333674559910964, 51.276693357343596 ], [ 3.333650195379966, 51.276695661599412 ], [ 3.333637544755938, 51.276696858019854 ], [ 3.333604163187868, 51.276700015124582 ], [ 3.333723746349566, 51.278251980370747 ], [ 3.333807810478665, 51.279342533252098 ], [ 3.333889705197839, 51.279359705579523 ], [ 3.333938956763447, 51.279370055448496 ], [ 3.333971540262919, 51.279376902640436 ] ] ] ] } },
{ "type": "Feature", "properties": { }, "geometry": { "type": "Polygon", "coordinates": [ [ [ 3.990927166224623, 50.914921230504476 ], [ 3.990939451493165, 50.914924506485264 ], [ 3.991057871517734, 50.914956082918067 ], [ 3.991464075737163, 50.915064395115508 ], [ 3.991502509413005, 50.915074642910106 ], [ 3.991735035296069, 50.915136643843638 ], [ 3.991747457700736, 50.915141275134658 ], [ 3.991855894332312, 50.915181697930713 ], [ 3.991886461944492, 50.915196109172555 ], [ 3.992095318650425, 50.915294575174876 ], [ 3.992248089392287, 50.915374018378529 ], [ 3.993256077754241, 50.914201424569796 ], [ 3.99320296035276, 50.914181485589161 ], [ 3.993207123785742, 50.914177092963499 ], [ 3.993020780478621, 50.914102160864189 ], [ 3.993153718599853, 50.913949674553024 ], [ 3.993018592522314, 50.913896847038068 ], [ 3.992900202799671, 50.913850562369724 ], [ 3.992800596427865, 50.913811620920022 ], [ 3.992727021796669, 50.913889823337719 ], [ 3.992721118724694, 50.913896097694987 ], [ 3.992646311169163, 50.913975610247306 ], [ 3.991849646608677, 50.913685067518884 ], [ 3.991530748397514, 50.914112412844602 ], [ 3.990927166224623, 50.914921230504476 ] ] ] } },
{ "type": "Feature", "properties": { }, "geometry": { "type": "Polygon", "coordinates": [ [ [ 3.51746124902224, 50.78661877472679 ], [ 3.517527144993164, 50.786636124142348 ], [ 3.517453226204858, 50.786777154202063 ], [ 3.517791784901982, 50.786914565327749 ], [ 3.517934660062505, 50.786972553660043 ], [ 3.517980008914797, 50.786990959202015 ], [ 3.518494924200131, 50.787199942660742 ], [ 3.518637975315167, 50.786879983097663 ], [ 3.518650182244042, 50.786852680472876 ], [ 3.518762235443299, 50.786602055171102 ], [ 3.51897810049373, 50.786643830544875 ], [ 3.519438768724301, 50.786609857389031 ], [ 3.519818395534569, 50.786581859046777 ], [ 3.519844248498649, 50.786579952285649 ], [ 3.519971866466591, 50.786570540270006 ], [ 3.520604139192739, 50.786523906374839 ], [ 3.520776841805465, 50.786514238172316 ], [ 3.521563678430708, 50.786470186811059 ], [ 3.521619833835296, 50.7864670427224 ], [ 3.521635356927483, 50.786466173684509 ], [ 3.521646840773237, 50.786462849846352 ], [ 3.521756844097321, 50.78637638231104 ], [ 3.521962212514025, 50.786511747719445 ], [ 3.522111493352217, 50.786268702370954 ], [ 3.522186850771919, 50.786146012583792 ], [ 3.522210122980677, 50.786108122818142 ], [ 3.522247710710599, 50.786046925639887 ], [ 3.522253809777637, 50.786036995456456 ], [ 3.522297221946428, 50.785966313892885 ], [ 3.521971689783898, 50.785893507009852 ], [ 3.521922333597304, 50.785883875542545 ], [ 3.521266993327823, 50.785756009115239 ], [ 3.521157412298114, 50.785734646810859 ], [ 3.52114772907173, 50.785717945463432 ], [ 3.520798855677941, 50.78566401268364 ], [ 3.519881823829774, 50.785626049633557 ], [ 3.519880666821399, 50.785625914972826 ], [ 3.519877082608859, 50.785636270251672 ], [ 3.519142132813343, 50.785544456944912 ], [ 3.519100970155206, 50.785539373910261 ], [ 3.518442659515253, 50.785475570363417 ], [ 3.518195549968143, 50.785451619476497 ], [ 3.518190630622693, 50.785453851029843 ], [ 3.518046096882044, 50.785622411577357 ], [ 3.518064728045039, 50.785659205437319 ], [ 3.517947135267371, 50.785834812137828 ], [ 3.517901949260784, 50.785921082077181 ], [ 3.517836538562834, 50.785906730110838 ], [ 3.517575535639979, 50.786401938785566 ], [ 3.517541633340881, 50.786466261821985 ], [ 3.51746124902224, 50.78661877472679 ] ] ] } },
{ "type": "Feature", "properties": { }, "geometry": { "type": "Polygon", "coordinates": [ [ [ 5.340471342527976, 51.148679351823333 ], [ 5.341413202907272, 51.149924628708263 ], [ 5.341437907877971, 51.149911992697199 ], [ 5.341432309420625, 51.149900298374639 ], [ 5.341519039390992, 51.149858213579954 ], [ 5.341531060602608, 51.149852387546865 ], [ 5.341834552979623, 51.149609221608458 ], [ 5.341945298187683, 51.149500402241173 ], [ 5.341948600269163, 51.149461604341035 ], [ 5.341932109283967, 51.149390141282304 ], [ 5.341964152633977, 51.149276740941133 ], [ 5.342017868981283, 51.149214436856781 ], [ 5.34210327411548, 51.149156199170434 ], [ 5.342141287210473, 51.149137551309479 ], [ 5.342268411601339, 51.149075188445813 ], [ 5.342341209948711, 51.149031753316308 ], [ 5.34237050419588, 51.149014274870112 ], [ 5.342378351199494, 51.148993605505062 ], [ 5.342355189333316, 51.148958528128965 ], [ 5.342431366836384, 51.148826100969828 ], [ 5.342454140297, 51.148786510686207 ], [ 5.34244934049288, 51.148720369037086 ], [ 5.342501315802137, 51.148704498700781 ], [ 5.342515586999917, 51.148679688959717 ], [ 5.342563672019573, 51.148666720860447 ], [ 5.341640211718571, 51.147440495287469 ], [ 5.341592627402155, 51.147470127516954 ], [ 5.341357425127605, 51.147616594299819 ], [ 5.341148762487331, 51.147746530988414 ], [ 5.340864916291546, 51.147923286730915 ], [ 5.340789552908308, 51.14778969272583 ], [ 5.340670410783851, 51.148108617586516 ], [ 5.340648138221844, 51.148168237276046 ], [ 5.340471342527976, 51.148679351823333 ] ] ] } },
{ "type": "Feature", "properties": { }, "geometry": { "type": "MultiPolygon", "coordinates": [ [ [ [ 4.243601722402931, 51.111456495420072 ], [ 4.243635724817234, 51.111452965297424 ], [ 4.243746673253669, 51.11143999391296 ], [ 4.24390793593093, 51.111374026193317 ], [ 4.244421102667684, 51.111003494586555 ], [ 4.243870709010068, 51.111357574957623 ], [ 4.243601722402931, 51.111456495420072 ] ] ], [ [ [ 4.245120684708968, 51.110631825156872 ], [ 4.245256937640488, 51.110595237984768 ], [ 4.245299429738036, 51.110655694771658 ], [ 4.245399985092619, 51.110638755309445 ], [ 4.245478366821899, 51.110608243342575 ], [ 4.245579265350364, 51.110558175242637 ], [ 4.245582986602499, 51.110556178778133 ], [ 4.245739516420601, 51.110437134680112 ], [ 4.245749771978176, 51.110420546017508 ], [ 4.245826520103394, 51.110296348108839 ], [ 4.245837861981747, 51.110274201175095 ], [ 4.245854638071056, 51.110236185422167 ], [ 4.245875224508578, 51.110189847686726 ], [ 4.245883345297289, 51.110174325575187 ], [ 4.245887583498439, 51.110166231850805 ], [ 4.245889055991951, 51.110163428146066 ], [ 4.245891935364659, 51.110157839448661 ], [ 4.245911488257535, 51.11013047765713 ], [ 4.245919690937258, 51.110108268892333 ], [ 4.245949399519398, 51.110027832795112 ], [ 4.245944494610017, 51.11003746857552 ], [ 4.245748732958627, 51.110208388072451 ], [ 4.245734738780351, 51.110231179715711 ], [ 4.245672983866852, 51.110279968556085 ], [ 4.245614771527933, 51.110368398925601 ], [ 4.245416298807822, 51.110505187244158 ], [ 4.245383387729401, 51.110516468467772 ], [ 4.245120684708968, 51.110631825156872 ] ] ], [ [ [ 4.246064799075103, 51.109801127148067 ], [ 4.246071331333413, 51.109792935908921 ], [ 4.246098227106301, 51.109759209451624 ], [ 4.246141919555368, 51.109749319206948 ], [ 4.246084924117141, 51.109761590706022 ], [ 4.246064799075103, 51.109801127148067 ] ] ], [ [ [ 4.248790713034051, 51.109822183268612 ], [ 4.248958596311993, 51.109868407196913 ], [ 4.249169735801562, 51.109954156393364 ], [ 4.24934594172713, 51.110086347186432 ], [ 4.249629221234219, 51.110298866608971 ], [ 4.249674202220678, 51.110332609691376 ], [ 4.249690902574682, 51.110347060542267 ], [ 4.249857970759828, 51.110491661145879 ], [ 4.249892191177769, 51.110528606804557 ], [ 4.250027656000791, 51.110674814362142 ], [ 4.250091858037661, 51.110818316523577 ], [ 4.250142359493724, 51.110931201809059 ], [ 4.250295205065107, 51.111213446371828 ], [ 4.250388541437348, 51.111303623128002 ], [ 4.250448324545105, 51.111341364859378 ], [ 4.250572147903568, 51.111371486992219 ], [ 4.250702857098143, 51.111379453812134 ], [ 4.250707811948376, 51.111380325670801 ], [ 4.250727480826097, 51.111356138275333 ], [ 4.250780055590598, 51.111291485407357 ], [ 4.25077498031339, 51.111291228154556 ], [ 4.250754058508397, 51.111287571297233 ], [ 4.250509111881851, 51.111244766709085 ], [ 4.25040873128653, 51.111139078182916 ], [ 4.250225231839859, 51.110724645831532 ], [ 4.25013249253661, 51.110560374351273 ], [ 4.249457586722945, 51.110001043993528 ], [ 4.249266280847222, 51.10989748382805 ], [ 4.24923473863312, 51.109880408010994 ], [ 4.248887482604673, 51.109719010023348 ], [ 4.24886861196463, 51.10971289055545 ], [ 4.248790713034051, 51.109822183268612 ] ] ] ] } },
{ "type": "Feature", "properties": { }, "geometry": { "type": "Polygon", "coordinates": [ [ [ 5.616469445196463, 51.063963172169089 ], [ 5.615297802896858, 51.064071773542231 ], [ 5.615309149013044, 51.06415685335503 ], [ 5.615319141593054, 51.06423178326591 ], [ 5.615392511739076, 51.064267354766528 ], [ 5.616565872150713, 51.06483621277355 ], [ 5.616558377124853, 51.064768354894717 ], [ 5.616469445196463, 51.063963172169089 ] ] ] } },
{ "type": "Feature", "properties": { }, "geometry": { "type": "MultiPolygon", "coordinates": [ [ [ [ 4.876318438068752, 50.841633567506804 ], [ 4.876365012419519, 50.841608569237792 ], [ 4.87748327530782, 50.842390439633014 ], [ 4.877775268187653, 50.842238792640373 ], [ 4.877788780760453, 50.842170349335802 ], [ 4.877864210201328, 50.842068186595178 ], [ 4.877898582738442, 50.842005913853377 ], [ 4.877623739945339, 50.841884474551428 ], [ 4.877570451733435, 50.841860929198532 ], [ 4.876404280706276, 50.841345639532449 ], [ 4.876401517716416, 50.841340508002396 ], [ 4.876357008295296, 50.841381884819597 ], [ 4.876225541922293, 50.841520898457944 ], [ 4.876313615542484, 50.841592886328883 ], [ 4.876318438068752, 50.841633567506804 ] ] ], [ [ [ 4.876532193231267, 50.841046417861577 ], [ 4.876798571208304, 50.840746385773471 ], [ 4.87686280999142, 50.840674030533457 ], [ 4.876856835607224, 50.840671884825426 ], [ 4.876861397893718, 50.840667067926617 ], [ 4.876747289600615, 50.840627533281008 ], [ 4.876746754655295, 50.84063234979358 ], [ 4.876600912529975, 50.840579968529454 ], [ 4.876586222025947, 50.840594283301435 ], [ 4.876329896153929, 50.840933406037273 ], [ 4.876329567055476, 50.840940983522934 ], [ 4.876532193231267, 50.841046417861577 ] ] ], [ [ [ 4.872746968738618, 50.839800664964031 ], [ 4.87285806358757, 50.839818776682876 ], [ 4.872855171047163, 50.83967893414966 ], [ 4.872816874599012, 50.839680652837323 ], [ 4.872795652238064, 50.839717087212634 ], [ 4.872778189852261, 50.839747065535654 ], [ 4.872746968738618, 50.839800664964031 ] ] ] ] } },
{ "type": "Feature", "properties": { }, "geometry": { "type": "Polygon", "coordinates": [ [ [ 5.328518453441286, 50.836612697230265 ], [ 5.328609099465266, 50.836790484269812 ], [ 5.328670145814733, 50.836910215658925 ], [ 5.328732351288894, 50.837032219773313 ], [ 5.328770634087286, 50.837107303799066 ], [ 5.328471170131516, 50.83720142958493 ], [ 5.328396104659104, 50.837225023440745 ], [ 5.328378447357041, 50.837230573303337 ], [ 5.328384507114058, 50.837240580385277 ], [ 5.328395680240362, 50.837236793251954 ], [ 5.328491085467059, 50.837204452276588 ], [ 5.328911879640932, 50.837061812125079 ], [ 5.330199303723575, 50.836625398652401 ], [ 5.33017969553763, 50.836572673704786 ], [ 5.330046596618156, 50.836438476245789 ], [ 5.329940606420591, 50.836331610577709 ], [ 5.329937355373929, 50.836328335783875 ], [ 5.329710240740864, 50.836099560809032 ], [ 5.329591926559183, 50.835980380595075 ], [ 5.329591057669616, 50.83597949954833 ], [ 5.329552067474406, 50.835939963775125 ], [ 5.329214133818483, 50.8360632526282 ], [ 5.32913716160068, 50.836091334294302 ], [ 5.328639361572313, 50.83627294395508 ], [ 5.328834285238125, 50.836493439287828 ], [ 5.328518453441286, 50.836612697230265 ] ] ] } },
{ "type": "Feature", "properties": { }, "geometry": { "type": "Polygon", "coordinates": [ [ [ 4.775874673184426, 50.897988742896466 ], [ 4.776277576924516, 50.898079714689587 ], [ 4.776874167597698, 50.897198115060043 ], [ 4.776867810287901, 50.897177308452477 ], [ 4.776666731554366, 50.897153582468256 ], [ 4.776492926719259, 50.89710140448507 ], [ 4.776021611457867, 50.897777847479631 ], [ 4.775874673184426, 50.897988742896466 ] ] ] } },
{ "type": "Feature", "properties": { }, "geometry": { "type": "Polygon", "coordinates": [ [ [ 4.317961729926798, 50.734203191482329 ], [ 4.318219538815822, 50.734341581526536 ], [ 4.318782129298937, 50.734627190903346 ], [ 4.319247710010262, 50.73421220695591 ], [ 4.318702090881105, 50.733996236274201 ], [ 4.318656691258058, 50.733970134896133 ], [ 4.318485044412412, 50.734157385250882 ], [ 4.31804954524972, 50.734157199903976 ], [ 4.317961729926798, 50.734203191482329 ] ] ] } },
{ "type": "Feature", "properties": { }, "geometry": { "type": "Polygon", "coordinates": [ [ [ 3.133518070944956, 51.073190511616204 ], [ 3.134155365610717, 51.073404813160373 ], [ 3.134444179347291, 51.073429207753357 ], [ 3.134565245740323, 51.073396856502207 ], [ 3.135266306811276, 51.072869310701378 ], [ 3.136085914408004, 51.072280165991891 ], [ 3.136267594816714, 51.072084859299693 ], [ 3.136174714831084, 51.072004044363723 ], [ 3.136143760733003, 51.071462271260494 ], [ 3.136200785214183, 51.071349277882682 ], [ 3.135695849352606, 51.071267170468538 ], [ 3.135329966188224, 51.07167426468083 ], [ 3.134897241584912, 51.071512116340202 ], [ 3.134818629966506, 51.071598165644239 ], [ 3.13469535712903, 51.071740923947608 ], [ 3.134920757012018, 51.071887723086867 ], [ 3.133518070944956, 51.073190511616204 ] ] ] } }
]
}
